{
  "type": "FeatureCollection",
  "features": [
    {
      "type": "Feature",
      "properties": {
        "norad_id": 29740,
        "name": "FENGYUN 1C DEB",
        "group": "fengyun-1c-debris",
        "lat": -52.480652042970135,
        "lon": -148.6050963059352,
        "alt_km": 1862.9117905825105,
        "timestamp": "2025-12-14T07:33:19.748421+00:00",
        "meta_object_name": "FENGYUN 1C DEB",
        "meta_object_id": "1999-025AE",
        "meta_epoch": "2025-12-13T02:04:56.832096",
        "meta_mean_motion": 12.08331606,
        "meta_eccentricity": 0.0975065,
        "meta_inclination": 99.0448,
        "meta_ra_of_asc_node": 198.5461,
        "meta_arg_of_pericenter": 198.0207,
        "meta_mean_anomaly": 158.3876,
        "meta_ephemeris_type": 0,
        "meta_classification_type": "U",
        "meta_norad_cat_id": 29740,
        "meta_element_set_no": 999,
        "meta_rev_at_epoch": 82939,
        "meta_bstar": 0.0018926239,
        "meta_mean_motion_dot": 7.03e-06,
        "meta_mean_motion_ddot": 0,
        "tle_line1": "1 29740U 99025AE  25347.08676889  .00000703  00000+0  18926-2 0  9997",
        "tle_line2": "2 29740  99.0448 198.5461 0975065 198.0207 158.3876 12.08331606829390"
      },
      "geometry": {
        "type": "Point",
        "coordinates": [
          -148.6050963059352,
          -52.480652042970135
        ]
      }
    },
    {
      "type": "Feature",
      "properties": {
        "norad_id": 29741,
        "name": "FENGYUN 1C DEB",
        "group": "fengyun-1c-debris",
        "lat": 42.407956865713516,
        "lon": 50.68895346155419,
        "alt_km": 1395.7732783118518,
        "timestamp": "2025-12-14T07:33:19.748445+00:00",
        "meta_object_name": "FENGYUN 1C DEB",
        "meta_object_id": "1999-025AF",
        "meta_epoch": "2025-12-13T15:10:41.837952",
        "meta_mean_motion": 12.00937793,
        "meta_eccentricity": 0.10247051,
        "meta_inclination": 99.1747,
        "meta_ra_of_asc_node": 221.7126,
        "meta_arg_of_pericenter": 62.1557,
        "meta_mean_anomaly": 354.6474,
        "meta_ephemeris_type": 0,
        "meta_classification_type": "U",
        "meta_norad_cat_id": 29741,
        "meta_element_set_no": 999,
        "meta_rev_at_epoch": 52194,
        "meta_bstar": 0.0062060519,
        "meta_mean_motion_dot": 2.413e-05,
        "meta_mean_motion_ddot": 0,
        "tle_line1": "1 29741U 99025AF  25347.63242868  .00002413  00000+0  62061-2 0  9994",
        "tle_line2": "2 29741  99.1747 221.7126 1024705  62.1557 354.6474 12.00937793521943"
      },
      "geometry": {
        "type": "Point",
        "coordinates": [
          50.68895346155419,
          42.407956865713516
        ]
      }
    },
    {
      "type": "Feature",
      "properties": {
        "norad_id": 29748,
        "name": "FENGYUN 1C DEB",
        "group": "fengyun-1c-debris",
        "lat": -16.048539439512712,
        "lon": -78.32620938634808,
        "alt_km": 1089.9257533597538,
        "timestamp": "2025-12-14T07:33:19.748467+00:00",
        "meta_object_name": "FENGYUN 1C DEB",
        "meta_object_id": "1999-025AN",
        "meta_epoch": "2025-12-13T01:22:21.761184",
        "meta_mean_motion": 11.90082817,
        "meta_eccentricity": 0.08505185,
        "meta_inclination": 99.797,
        "meta_ra_of_asc_node": 277.8904,
        "meta_arg_of_pericenter": 9.8735,
        "meta_mean_anomaly": 351.7911,
        "meta_ephemeris_type": 0,
        "meta_classification_type": "U",
        "meta_norad_cat_id": 29748,
        "meta_element_set_no": 999,
        "meta_rev_at_epoch": 78737,
        "meta_bstar": 0.17869463,
        "meta_mean_motion_dot": 0.00035404,
        "meta_mean_motion_ddot": 0,
        "tle_line1": "1 29748U 99025AN  25347.05719631  .00035404  00000+0  17869+0 0  9993",
        "tle_line2": "2 29748  99.7970 277.8904 0850518   9.8735 351.7911 11.90082817787375"
      },
      "geometry": {
        "type": "Point",
        "coordinates": [
          -78.32620938634808,
          -16.048539439512712
        ]
      }
    },
    {
      "type": "Feature",
      "properties": {
        "norad_id": 29750,
        "name": "FENGYUN 1C DEB",
        "group": "fengyun-1c-debris",
        "lat": -24.95233085386599,
        "lon": 21.501600868660837,
        "alt_km": 846.0167967423395,
        "timestamp": "2025-12-14T07:33:19.748478+00:00",
        "meta_object_name": "FENGYUN 1C DEB",
        "meta_object_id": "1999-025AQ",
        "meta_epoch": "2025-12-13T15:13:46.264800",
        "meta_mean_motion": 14.09644434,
        "meta_eccentricity": 0.00351053,
        "meta_inclination": 98.7549,
        "meta_ra_of_asc_node": 16.7284,
        "meta_arg_of_pericenter": 298.8483,
        "meta_mean_anomaly": 185.5996,
        "meta_ephemeris_type": 0,
        "meta_classification_type": "U",
        "meta_norad_cat_id": 29750,
        "meta_element_set_no": 999,
        "meta_rev_at_epoch": 97086,
        "meta_bstar": 0.00030489174,
        "meta_mean_motion_dot": 4.94e-06,
        "meta_mean_motion_ddot": 0,
        "tle_line1": "1 29750U 99025AQ  25347.63456325  .00000494  00000+0  30489-3 0  9996",
        "tle_line2": "2 29750  98.7549  16.7284 0035105 298.8483 185.5996 14.09644434970863"
      },
      "geometry": {
        "type": "Point",
        "coordinates": [
          21.501600868660837,
          -24.95233085386599
        ]
      }
    },
    {
      "type": "Feature",
      "properties": {
        "norad_id": 29751,
        "name": "FENGYUN 1C DEB",
        "group": "fengyun-1c-debris",
        "lat": -11.264074128925461,
        "lon": -165.57368152435077,
        "alt_km": 781.4278134667384,
        "timestamp": "2025-12-14T07:33:19.748504+00:00",
        "meta_object_name": "FENGYUN 1C DEB",
        "meta_object_id": "1999-025AR",
        "meta_epoch": "2025-12-12T00:49:50.759328",
        "meta_mean_motion": 14.23628371,
        "meta_eccentricity": 0.0089884,
        "meta_inclination": 98.5417,
        "meta_ra_of_asc_node": 13.9273,
        "meta_arg_of_pericenter": 141.2573,
        "meta_mean_anomaly": 249.6401,
        "meta_ephemeris_type": 0,
        "meta_classification_type": "U",
        "meta_norad_cat_id": 29751,
        "meta_element_set_no": 999,
        "meta_rev_at_epoch": 98063,
        "meta_bstar": 0.00023775,
        "meta_mean_motion_dot": 5.23e-06,
        "meta_mean_motion_ddot": 0,
        "tle_line1": "1 29751U 99025AR  25346.03461527  .00000523  00000+0  23775-3 0  9993",
        "tle_line2": "2 29751  98.5417  13.9273 0089884 141.2573 249.6401 14.23628371980634"
      },
      "geometry": {
        "type": "Point",
        "coordinates": [
          -165.57368152435077,
          -11.264074128925461
        ]
      }
    },
    {
      "type": "Feature",
      "properties": {
        "norad_id": 29754,
        "name": "FENGYUN 1C DEB",
        "group": "fengyun-1c-debris",
        "lat": -59.38397072094127,
        "lon": 106.38325078827873,
        "alt_km": 824.1154597696705,
        "timestamp": "2025-12-14T07:33:19.748517+00:00",
        "meta_object_name": "FENGYUN 1C DEB",
        "meta_object_id": "1999-025AU",
        "meta_epoch": "2025-12-13T13:19:30.205344",
        "meta_mean_motion": 14.1915501,
        "meta_eccentricity": 0.00359731,
        "meta_inclination": 98.8838,
        "meta_ra_of_asc_node": 90.2967,
        "meta_arg_of_pericenter": 236.9883,
        "meta_mean_anomaly": 143.5174,
        "meta_ephemeris_type": 0,
        "meta_classification_type": "U",
        "meta_norad_cat_id": 29754,
        "meta_element_set_no": 999,
        "meta_rev_at_epoch": 97366,
        "meta_bstar": 0.0013307239,
        "meta_mean_motion_dot": 2.759e-05,
        "meta_mean_motion_ddot": 0,
        "tle_line1": "1 29754U 99025AU  25347.55521071  .00002759  00000+0  13307-2 0  9997",
        "tle_line2": "2 29754  98.8838  90.2967 0035973 236.9883 143.5174 14.19155010973665"
      },
      "geometry": {
        "type": "Point",
        "coordinates": [
          106.38325078827873,
          -59.38397072094127
        ]
      }
    },
    {
      "type": "Feature",
      "properties": {
        "norad_id": 29758,
        "name": "FENGYUN 1C DEB",
        "group": "fengyun-1c-debris",
        "lat": 22.763413769637225,
        "lon": 100.33334210453901,
        "alt_km": 752.1763224793813,
        "timestamp": "2025-12-14T07:33:19.748528+00:00",
        "meta_object_name": "FENGYUN 1C DEB",
        "meta_object_id": "1999-025AY",
        "meta_epoch": "2025-12-13T13:42:57.604320",
        "meta_mean_motion": 14.41007544,
        "meta_eccentricity": 0.00211543,
        "meta_inclination": 98.8547,
        "meta_ra_of_asc_node": 103.3144,
        "meta_arg_of_pericenter": 304.8927,
        "meta_mean_anomaly": 184.1892,
        "meta_ephemeris_type": 0,
        "meta_classification_type": "U",
        "meta_norad_cat_id": 29758,
        "meta_element_set_no": 999,
        "meta_rev_at_epoch": 97683,
        "meta_bstar": 0.0030519357,
        "meta_mean_motion_dot": 9.803e-05,
        "meta_mean_motion_ddot": 0,
        "tle_line1": "1 29758U 99025AY  25347.57150005  .00009803  00000+0  30519-2 0  9999",
        "tle_line2": "2 29758  98.8547 103.3144 0021154 304.8927 184.1892 14.41007544976832"
      },
      "geometry": {
        "type": "Point",
        "coordinates": [
          100.33334210453901,
          22.763413769637225
        ]
      }
    }
  ]
}